{
    "links": {
        "self": "http://www.neowsapp.com/rest/v1/neo/3645039?api_key=iIulBulltgU6a56xZRHN4H3l9WmuAYTsLGpBGhQ2"
    },
    "id": "3645039",
    "neo_reference_id": "3645039",
    "name": "(2013 NB15)",
    "designation": "2013 NB15",
    "nasa_jpl_url": "http://ssd.jpl.nasa.gov/sbdb.cgi?sstr=3645039",
    "absolute_magnitude_h": 26.7,
    "estimated_diameter": {
        "kilometers": {
            "estimated_diameter_min": 0.0121494041,
            "estimated_diameter_max": 0.0271668934
        },
        "meters": {
            "estimated_diameter_min": 12.14940408,
            "estimated_diameter_max": 27.1668934089
        },
        "miles": {
            "estimated_diameter_min": 0.0075492874,
            "estimated_diameter_max": 0.0168807197
        },
        "feet": {
            "estimated_diameter_min": 39.8602508817,
            "estimated_diameter_max": 89.1302305717
        }
    },
    "is_potentially_hazardous_asteroid": false,
    "close_approach_data": [
        {
            "close_approach_date": "2013-07-15",
            "close_approach_date_full": "2013-Jul-15 20:20",
            "epoch_date_close_approach": 1373919600000,
            "relative_velocity": {
                "kilometers_per_second": "8.755096044",
                "kilometers_per_hour": "31518.3457583379",
                "miles_per_hour": "19584.274340785"
            },
            "miss_distance": {
                "astronomical": "0.0282294783",
                "lunar": "10.9812670587",
                "kilometers": "4223069.824891221",
                "miles": "2624093.9083360098"
            },
            "orbiting_body": "Earth"
        }
    ],
    "orbital_data": {
        "orbit_id": "5",
        "orbit_determination_date": "2017-04-06 08:45:24",
        "first_observation_date": "2013-07-13",
        "last_observation_date": "2013-07-14",
        "data_arc_in_days": 1,
        "observations_used": 5,
        "orbit_uncertainty": "8",
        "minimum_orbit_intersection": ".0258557",
        "jupiter_tisserand_invariant": "4.018",
        "epoch_osculation": "2456487.5",
        "eccentricity": ".4202834339330183",
        "semi_major_axis": "1.744221713322629",
        "inclination": "9.949305962112311",
        "ascending_node_longitude": "110.3562507419305",
        "orbital_period": "841.3970010808791",
        "perihelion_distance": "1.011154222106862",
        "perihelion_argument": "208.6807919198183",
        "aphelion_distance": "2.477289204538397",
        "perihelion_time": "2456511.494679126542",
        "mean_anomaly": "349.7336400362036",
        "mean_motion": ".4278598563312387",
        "equinox": "J2000",
        "orbit_class": {
            "orbit_class_type": "APO",
            "orbit_class_description": "Near-Earth asteroid orbits which cross the Earth’s orbit similar to that of 1862 Apollo",
            "orbit_class_range": "a (semi-major axis) > 1.0 AU; q (perihelion) < 1.017 AU"
        }
    },
    "is_sentry_object": false
}